BEIDOU-3 M13 (C32)      
1 43622U 18072A   24324.99451685 -.00000021  00000+0  00000+0 0  9999
2 43622  56.1234  81.6889 0004854 291.4837  68.4454  1.86231061 41964
BEIDOU-3 M14 (C33)      
1 43623U 18072B   24322.71215548 -.00000032  00000+0  00000+0 0  9996
2 43623  56.1236  81.7582 0002370 338.0743  21.8871  1.86230993 41917
BEIDOU-3 M16 (C35)      
1 43647U 18078A   24324.48477966 -.00000077  00000+0  00000+0 0  9997
2 43647  54.5956 320.0488 0006625   7.2255 352.7871  1.86232259 41461
BEIDOU-3 M15 (C34)      
1 43648U 18078B   24325.15086412 -.00000076  00000+0  00000+0 0  9994
2 43648  54.5906 320.0279 0003360   2.8761 357.1296  1.86232177 41493
BEIDOU-3 G1 (C59)       
1 43683U 18085A   24324.89425139 -.00000275  00000+0  00000+0 0  9995
2 43683   2.5766 104.0297 0001605  61.0103 356.3658  1.00271560 22291
COSMOS 2529 (757)       
1 43687U 18086A   24324.33888622  .00000019  00000+0  00000+0 0  9994
2 43687  64.2933 212.0222 0008000 260.7985  99.1911  2.13101976 47037
BEIDOU-3 M17 (C36)      
1 43706U 18093A   24324.22962319  .00000020  00000+0  00000+0 0  9990
2 43706  54.1975 201.8073 0007081 297.5310  62.4883  1.86228389 40830
BEIDOU-3 M18 (C37)      
1 43707U 18093B   24325.16759241  .00000009  00000+0  00000+0 0  9990
2 43707  54.1981 201.7672 0006608 336.0829  23.9737  1.86229979 40847
GPS BIII-1  (PRN 04)    
1 43873U 18109A   24324.15300692  .00000025  00000+0  00000+0 0  9990
2 43873  55.3636 114.9018 0031914 192.2086 168.0431  2.00561717 43543
BEIDOU-3 IGSO-1 (C38)   
1 44204U 19023A   24323.67305698 -.00000235  00000+0  00000+0 0  9996
2 44204  57.8718  43.6133 0024953 211.2842 162.6029  1.00255133  1440
BEIDOU-2 G8 (C01)       
1 44231U 19027A   24324.75220052 -.00000246  00000+0  00000+0 0  9992
2 44231   1.8637  74.6778 0005001 197.4332 202.4758  1.00268965 20316
COSMOS 2534 (758)       
1 44299U 19030A   24325.23864414  .00000007  00000+0  00000+0 0  9994
2 44299  64.3665 211.9597 0010164 286.3036 178.1817  2.13102063 42685
BEIDOU-3 IGSO-2 (C39)   
1 44337U 19035A   24322.83050358 -.00000064  00000+0  00000+0 0  9993
2 44337  55.1861 163.9216 0034767 201.0257 107.1426  1.00249229 19887
GPS BIII-2  (PRN 18)    
1 44506U 19056A   24324.31405747 -.00000097  00000+0  00000+0 0  9991
2 44506  55.8262 353.9460 0048541 193.8397 187.2277  2.00557905 38537
BEIDOU-3 M24 (C46)      
1 44542U 19061A   24325.23760197  .00000008  00000+0  00000+0 0  9993
2 44542  54.4250 202.0905 0008997  12.2945 347.8144  1.86229387 35101
BEIDOU-3 M23 (C45)      
1 44543U 19061B   24324.55670227  .00000016  00000+0  00000+0 0  9991
2 44543  54.4236 202.0820 0005675   7.6219 168.5716  1.86229595 35085
BEIDOU-3 IGSO-3 (C40)   
1 44709U 19073A   24325.30562826 -.00000198  00000+0  00000+0 0  9999
2 44709  55.7883 287.0690 0040286 190.8200 169.0360  1.00254601 18681
BEIDOU-3 M22 (C44)      
1 44793U 19078A   24325.08192275 -.00000077  00000+0  00000+0 0  9995
2 44793  54.4424 319.9411 0005317  10.8046 349.2104  1.86232038 33962
BEIDOU-3 M21 (C43)      
1 44794U 19078B   24325.21130980 -.00000076  00000+0  00000+0 0  9995
2 44794  54.4159 319.9092 0003575 354.1630   5.8365  1.86232549 33961
COSMOS 2544 (759)       
1 44850U 19088A   24323.71507342  .00000009  00000+0  00000+0 0  9997
2 44850  65.2611  92.9832 0012547 247.5187 112.3266  2.13102006 38456
BEIDOU-3 M19 (C41)      
1 44864U 19090A   24325.41986052 -.00000019  00000+0  00000+0 0  9995
2 44864  56.0582  81.8368 0016513 278.9170  53.0001  1.86231493 33549
BEIDOU-3 M20 (C42)      
1 44865U 19090B   24324.30547546 -.00000024  00000+0  00000+0 0  9990
2 44865  56.0590  81.9075 0013832 292.6106 101.8618  1.86231394 33511
BEIDOU-3 G2 (C60)       
1 45344U 20017A   24324.81084611 -.00000140  00000+0  00000+0 0  9998
2 45344   2.5312  35.0397 0004632 216.5039 179.7224  1.00271409 17513
COSMOS 2545 (760)       
1 45358U 20018A   24324.38113996 -.00000057  00000+0  00000+0 0  9992
2 45358  64.6765 332.5503 0012256 248.5261 111.3703  2.13102512 36413
BEIDOU-3 G3 (C61)       
1 45807U 20040A   24325.50980851 -.00000352  00000+0  00000+0 0  9991
2 45807   1.0848  56.1500 0003219 298.3918 359.5181  1.00276510 16336
GPS BIII-3  (PRN 23)    
1 45854U 20041A   24325.31548242 -.00000073  00000+0  00000+0 0  9997
2 45854  56.2531  51.3055 0049623 196.3810 125.9896  2.00569991 32524
GALAXY 30 (WAAS/PRN 135)
1 46114U 20056C   24324.58470728  .00000038  00000+0  00000+0 0  9994
2 46114   0.0158 335.4298 0002379 263.2689 265.9128  1.00270951 15647
COSMOS 2547 (705K)      
1 46805U 20075A   24324.56770419  .00000016  00000+0  00000+0 0  9996
2 46805  64.5960 211.6701 0006452 235.7751 124.2436  2.13102777 31668
GPS BIII-4  (PRN 14)    
1 46826U 20078A   24324.73115991 -.00000011  00000+0  00000+0 0  9995
2 46826  54.1242 234.0911 0050872 198.6193  35.6838  2.00560283 29982
GPS BIII-5  (PRN 11)    
1 48859U 21054A   24325.22741069 -.00000100  00000+0  00000+0 0  9993
2 48859  55.3545 355.4892 0019293 227.7203 189.1112  2.00575438 25235
QZS-1R (QZSS/PRN 196)   
1 49336U 21096A   24323.69045250 -.00000249  00000+0  00000+0 0  9992
2 49336  36.2682  88.1919 0750195 270.8065  83.7064  1.00269420 11245
GSAT0223 (GALILEO 27)   
1 49809U 21116A   24324.73152295 -.00000095  00000+0  00000+0 0  9993
2 49809  57.2885 357.1766 0004363 235.3956 128.4999  1.70476027 18387
GSAT0224 (GALILEO 28)   
1 49810U 21116B   24324.54737208 -.00000095  00000+0  00000+0 0  9997
2 49810  57.2892 357.1800 0004237 243.6316 119.7660  1.70476039 18402
COSMOS 2557 (706K)      
1 52984U 22075A   24325.20288812 -.00000058  00000+0  00000+0 0  9993
2 52984  64.6069 334.6372 0014083 276.5901  83.2791  2.13102036 18473
COSMOS 2559 (707K)      
1 54031U 22130A   24325.14628766 -.00000058  00000+0  00000+0 0  9999
2 54031  64.5789 334.7514 0008317 232.2656 127.6888  2.13101359 16457
COSMOS 2564 (761)       
1 54377U 22161A   24324.86726886  .00000012  00000+0  00000+0 0  9995
2 54377  64.7374 211.7929 0008540 212.3353 147.6912  2.13102086 15397
GPS BIII-6  (PRN 28)    
1 55268U 23009A   24325.38483295  .00000037  00000+0  00000+0 0  9996
2 55268  55.0857 171.0445 0002505  72.6447 139.6814  2.00553330 13728
BEIDOU-3 G4 (C62)       
1 56564U 23066A   24324.75524135 -.00000110  00000+0  00000+0 0  9991
2 56564   1.7376 288.9918 0004682 259.5451 302.6887  1.00271438  5643
IRNSS-1J (NVS-01)       
1 56759U 23076A   24324.56178925 -.00000334  00000+0  00000+0 0  9997
2 56759   3.6005 262.6437 0007946 356.0565 132.2127  1.00274189  5447
COSMOS 2569 (703K)      
1 57517U 23114A   24324.41403546  .00000012  00000+0  00000+0 0  9999
2 57517  64.9906  92.0532 0009269 289.8698  70.0114  2.13104044 10012
BEIDOU-3 M28 (C50)      
1 58654U 23207A   24323.68342999 -.00000029  00000+0  00000+0 0  9996
2 58654  55.2420  81.8037 0001678 235.2707 124.6887  1.86231988  6124
BEIDOU-3 M26 (C48)      
1 58655U 23207B   24325.09359558 -.00000022  00000+0  00000+0 0  9996
2 58655  55.2450  81.7413 0003179 230.0767 129.8764  1.86231489  6130
GSAT0225 (GALILEO 29)   
1 59598U 24079A   24324.55307038  .00000035  00000+0  00000+0 0  9990
2 59598  54.7827 117.1589 0002524 161.2148 196.6844  1.70474741  3500
GSAT0227 (GALILEO 30)   
1 59600U 24079C   24323.56661993  .00000033  00000+0  00000+0 0  9995
2 59600  54.7769 117.1878 0003831 115.6955 244.3160  1.70474673  3563
GSAT0232 (GALILEO 32)   
1 61182U 24167A   24321.21686440 -.00000004  00000+0  00000+0 0  9994
2 61182  55.3884 237.1378 0015743 276.0571  83.7985  1.73178105  1028
GSAT0226 (GALILEO 31)   
1 61183U 24167B   24321.20557931 -.00000004  00000+0  00000+0 0  9996
2 61183  55.3850 237.1721 0033834  97.1093 263.3097  1.71381460  1002
